{
    "links": {
        "self": "http://www.neowsapp.com/rest/v1/neo/3387550?api_key=iIulBulltgU6a56xZRHN4H3l9WmuAYTsLGpBGhQ2"
    },
    "id": "3387550",
    "neo_reference_id": "3387550",
    "name": "(2007 TB14)",
    "designation": "2007 TB14",
    "nasa_jpl_url": "http://ssd.jpl.nasa.gov/sbdb.cgi?sstr=3387550",
    "absolute_magnitude_h": 24.4,
    "estimated_diameter": {
        "kilometers": {
            "estimated_diameter_min": 0.0350392641,
            "estimated_diameter_max": 0.0783501764
        },
        "meters": {
            "estimated_diameter_min": 35.0392641108,
            "estimated_diameter_max": 78.3501764334
        },
        "miles": {
            "estimated_diameter_min": 0.0217723826,
            "estimated_diameter_max": 0.0486845275
        },
        "feet": {
            "estimated_diameter_min": 114.9582192654,
            "estimated_diameter_max": 257.0543928497
        }
    },
    "is_potentially_hazardous_asteroid": false,
    "close_approach_data": [
        {
            "close_approach_date": "2007-10-01",
            "close_approach_date_full": "2007-Oct-01 12:13",
            "epoch_date_close_approach": 1191240780000,
            "relative_velocity": {
                "kilometers_per_second": "13.0886215766",
                "kilometers_per_hour": "47119.0376758198",
                "miles_per_hour": "29277.9376047337"
            },
            "miss_distance": {
                "astronomical": "0.0243562508",
                "lunar": "9.4745815612",
                "kilometers": "3643643.240865796",
                "miles": "2264054.9242521448"
            },
            "orbiting_body": "Earth"
        }
    ],
    "orbital_data": {
        "orbit_id": "13",
        "orbit_determination_date": "2017-04-06 09:05:51",
        "first_observation_date": "2007-10-08",
        "last_observation_date": "2007-11-02",
        "data_arc_in_days": 25,
        "observations_used": 39,
        "orbit_uncertainty": "8",
        "minimum_orbit_intersection": ".0242814",
        "jupiter_tisserand_invariant": "3.150",
        "epoch_osculation": "2454387.5",
        "eccentricity": ".6371696767256675",
        "semi_major_axis": "2.49097735334366",
        "inclination": "5.975177144507473",
        "ascending_node_longitude": "200.7858789465379",
        "orbital_period": "1435.995555160694",
        "perihelion_distance": ".9038021183827214",
        "perihelion_argument": "124.3642466945879",
        "aphelion_distance": "4.078152588304599",
        "perihelion_time": "2454343.658649925688",
        "mean_anomaly": "10.99090172670217",
        "mean_motion": ".2506971548109802",
        "equinox": "J2000",
        "orbit_class": {
            "orbit_class_type": "APO",
            "orbit_class_description": "Near-Earth asteroid orbits which cross the Earth’s orbit similar to that of 1862 Apollo",
            "orbit_class_range": "a (semi-major axis) > 1.0 AU; q (perihelion) < 1.017 AU"
        }
    },
    "is_sentry_object": false
}